[Satellite]
VERSION=1.1
NAME=NOAA 6
NICKNAME=NOAA 6
TLE1=1 11416U 79057A   22342.30602992  .00000280  00000+0  11665-3 0  9996
TLE2=2 11416  98.6604 353.4176 0011401 104.4598 255.7852 14.33849070266439
STATUS=2
